UNKNOWN                 
1 81052U          26019.47075935  .00006902  00000+0  18055-2 0  9991
2 81052  65.7728 294.0545 0564190 289.6626  64.4412 13.83540829605539
UNKNOWN                 
1 81069U          26021.47192364  .00006205  00000+0  81448-2 0  9990
2 81069 100.3844 289.9982 0066851 308.1511  51.3615 13.60824833521331
UNKNOWN                 
1 81111U          26020.87584157  .00031963  00000+0  67318-2 0  9995
2 81111  62.8989 342.5023 3853866 358.7353   0.5519  7.56743422274900
UNKNOWN                 
1 81123U          26018.47140118  .00000938  00000+0  92419-3 0  9995
2 81123  99.9701 107.1427 0001991 315.0243  45.0747 13.81680240611358
UNKNOWN                 
1 81134U          26019.70465279  .00000242  00000+0  85976-3 0  9990
2 81134  90.2491   4.8782 0024397 292.0102  67.8424 12.92993290467514
UNKNOWN                 
1 81161U          26016.31042138  .00000316  00000+0  37583-3 0  9992
2 81161 100.4168 226.5127 0062179 196.2360 163.6795 13.75682856560881
UNKNOWN                 
1 81219U          26020.58936401  .00000808  00000+0  73863-3 0  9992
2 81219  82.9283 336.9586 0022570 103.3117 257.0561 13.81825191612887
UNKNOWN                 
1 81228U          26021.17143958  .00016197  00000+0  48806-2 0  9991
2 81228  70.5190 188.2109 0064402 302.8667  56.6278 14.41369977631771
UNKNOWN                 
1 81254U          26019.64731769  .00003700  00000+0  24167-2 0  9992
2 81254 100.3851  91.9334 0070983 329.9976  29.7126 14.01798044618203
UNKNOWN                 
1 81279U          26020.95288608  .00002201  00000+0  85169-3 0  9999
2 81279  98.1243  82.2275 0206032 270.0660  87.6911 14.20048275468166
UNKNOWN                 
1 81301U          26016.30960131  .00000199  00000+0  26992-3 0  9990
2 81301  66.7561 213.3012 0091031 209.6336 326.2117 13.76726433611115
UNKNOWN                 
1 81311U          26016.94577405  .00000437  00000+0  98845-4 0  9991
2 81311  98.7270  80.8740 0131514  17.5362 155.9730 14.56594439644717
UNKNOWN                 
1 81317U          26020.84374051  .00000184  00000+0  41293-3 0  9996
2 81317  67.1374  90.5283 0212261   6.5226 102.7446 13.38028720593861
UNKNOWN                 
1 81323U          26017.01799037  .00014251  00000+0  18038-2 0  9993
2 81323  65.7513 290.0679 0341541 294.8944  61.7014 14.48517031118167
UNKNOWN                 
1 81329U          26020.03915374  .00003237  00000+0  11690-2 0  9998
2 81329  65.8196  42.5714 0833214  12.5974 349.4549 13.22268842583149
UNKNOWN                 
1 81343U          26020.69131497  .00015142  00000+0  10801-2 0  9993
2 81343  85.8721 178.5315 0010523 113.8658 246.3680 15.04405828460179
UNKNOWN                 
1 81359U          26021.21017942  .00001021  00000+0  10182-2 0  9990
2 81359  66.8013 317.5214 0119894 298.0230  60.8756 13.78904867610924
UNKNOWN                 
1 81366U          26021.56384786  .00002479  00000+0  90065-3 0  9996
2 81366  65.8852 337.7685 0710624  62.2000 304.9229 13.45229127 71316
UNKNOWN                 
1 81371U          26019.54096183  .00004811  00000+0  77196-3 0  9990
2 81371  98.8124 124.0055 0069399 246.4516 112.9387 14.70593876647395
UNKNOWN                 
1 81386U          26016.45111938  .00003263  00000+0  10774-2 0  9997
2 81386  71.0482 281.2114 0085710  28.9980 331.5876 14.36689610629224
UNKNOWN                 
1 81390U          26018.98013495 -.00000075  00000+0 -19210-3 0  9996
2 81390 103.1077 275.1799 0169605  77.6089 284.3892 12.35626022504695
UNKNOWN                 
1 81392U          26020.21748194  .00004565  00000+0  42693-2 0  9994
2 81392 100.4025  17.3318 0042278 296.1878 129.2390 13.81963774607495
UNKNOWN                 
1 81405U          26003.38107143  .00002710  00000+0  20508-2 0  9992
2 81405  99.4680  56.9006 0161190 166.1515 194.4141 13.88959115564802
UNKNOWN                 
1 81427U          26019.12148382  .00000579  00000+0  36083-3 0  9992
2 81427  98.7483 265.0501 0083933 293.7541  65.4841 14.07016817557021
UNKNOWN                 
1 81438U          26016.08904153  .00002271  00000+0  33370-2 0  9998
2 81438 100.3191 254.2648 0057627 348.8010  11.1839 13.54905530596595
UNKNOWN                 
1 81439U          26021.41176138  .00000105  00000+0  43595-3 0  9991
2 81439  67.1601  65.0836 0599984 179.0468 181.1849 12.62639041266904
UNKNOWN                 
1 81449U          26017.60664314  .00031091  00000+0  21510-2 0  9996
2 81449  66.7976 246.8920 0022808  90.5213 269.8537 15.05361663638946
UNKNOWN                 
1 81478U          26021.04454603  .00009847  00000+0  35174-2 0  9994
2 81478  98.9524 298.9631 0144020 244.5560 127.5097 14.28675103628556
UNKNOWN                 
1 81488U          26020.61420780  .00000094  00000+0  19877-3 0  9994
2 81488  99.9991 258.8508 0044030 263.6730 127.2800 13.56531932601905
UNKNOWN                 
1 81497U          26020.94862660  .00007645  00000+0  68387-2 0  9995
2 81497 100.3029 284.3574 0028272 277.1708 143.7880 13.84486981221729
UNKNOWN                 
1 81499U          26020.76056241  .00006815  00000+0  18646-2 0  9998
2 81499  74.0495 148.1782 0002405 274.1302  85.9582 14.47373913488068
UNKNOWN                 
1 81535U          26019.44866152  .00000783  00000+0  33543-3 0  9994
2 81535  98.1980 103.5819 0235225  39.8501 321.9684 14.13530947392724
UNKNOWN                 
1 81536U          26019.36669284  .00000515  00000+0  34132-2 0  9990
2 81536 101.9630 245.8792 0025099 233.7737 308.5448 12.55916782556531
UNKNOWN                 
1 81537U          26020.28149712  .00000446  00000+0  28648-3 0  9992
2 81537  71.0395  29.5094 0074427  94.4825 266.4801 14.07120841625880
UNKNOWN                 
1 81599U          26019.77556583  .00000810  00000+0  15414-2 0  9991
2 81599  67.2914 198.6867 0245879  56.4290 327.0732 13.31499939590143
UNKNOWN                 
1 81605U          26019.49937561  .00000454  00000+0  22465-2 0  9995
2 81605  56.4340 106.5790 0173336 186.8882 172.9658 12.81554420191041
UNKNOWN                 
1 81614U          26013.46125897  .00005225  00000+0  33358-1 0  9990
2 81614 101.8150  13.3176 0340742  86.3314 277.6641 12.37487386541905
UNKNOWN                 
1 81615U          26020.34040812  .00001804  00000+0  66786-3 0  9991
2 81615  65.8293 332.1689 0768980 118.5593 249.5039 13.34202151588014
UNKNOWN                 
1 81617U          26019.41823783  .00000306  00000+0  20692-2 0  9996
2 81617 101.2608 197.2290 0037189 172.1547 188.0119 12.57563958557846
UNKNOWN                 
1 81624U          26015.15344357  .00002986  00000+0  47950-3 0  9999
2 81624  66.9763  74.5733 0068407 211.6333 148.0670 14.71574169644626
UNKNOWN                 
1 81640U          26020.35889626  .00000305  00000+0  33530-3 0  9990
2 81640  65.8260  52.9741 0976874  61.8987 307.7266 12.57241494514938
UNKNOWN                 
1 81652U          26019.20251061  .00000369  00000+0  49642-3 0  9992
2 81652 102.1454 280.4635 0366475 276.2805 240.6884 13.44439879583684
UNKNOWN                 
1 81667U          26021.24420848  .00006964  00000+0  18678-2 0  9997
2 81667  74.0415 322.6201 0017109 247.6637 112.2710 14.48239045462365
UNKNOWN                 
1 81674U          26013.04869363  .00000736  00000+0  46078-3 0  9990
2 81674  66.8233 285.4302 0029030 211.9398 162.1843 14.09999781618138
UNKNOWN                 
1 81683U          26021.08340648  .00004085  00000+0  88978-3 0  9999
2 81683  81.2144 253.8739 0022944 175.4945 184.6463 14.57648536641597
UNKNOWN                 
1 81693U          26019.40460862  .00000701  00000+0  53343-2 0  9992
2 81693 101.0955  81.7032 0364230  12.3158 348.6521 12.25937419972380
UNKNOWN                 
1 81745U          26021.50745067  .00004441  00000+0  14076-2 0  9992
2 81745  71.0014 300.4634 0004670 184.2952 175.8145 14.40574093635471
UNKNOWN                 
1 81775U          26021.44855737  .00017022  00000+0  52263-2 0  9993
2 81775  82.9192 191.3631 0016385 128.3529 231.9140 14.41450494630991
UNKNOWN                 
1 81779U          26019.47717212 -.00006559  00000+0 -35454+0 0  9997
2 81779  54.5345 152.9170 1559123  87.7560 290.0165  9.34305432483847
UNKNOWN                 
1 81792U          26018.27248162  .00002371  00000+0  84712-3 0  9993
2 81792  65.8274  13.7586 0896191 266.3044  83.5209 13.11111422 84826
UNKNOWN                 
1 81812U          26020.53686738  .00004337  00000+0  30764-1 0  9993
2 81812 103.8145 302.1961 0236388 176.4297 183.8509 12.37674881545366
UNKNOWN                 
1 81816U          26021.10942495  .00001243  00000+0  95521-3 0  9993
2 81816  66.2363 197.9583 0175558 223.9994 134.6995 13.89566714614810
UNKNOWN                 
1 81819U          26019.26473203  .00001136  00000+0  79989-2 0  9996
2 81819 102.1723 121.9588 0028628  41.2765 319.0460 12.47740488552695
UNKNOWN                 
1 81824U          26020.28796208  .00007892  00000+0  27175-2 0  9994
2 81824  65.8410 232.0212 0043711 312.9439  46.7991 14.35869592630128
UNKNOWN                 
1 81833U          26018.23549801  .00000219  00000+0  76826-3 0  9995
2 81833  90.2414   3.7011 0025643 290.3486  69.4877 12.93741453457230
UNKNOWN                 
1 81838U          26019.68915785  .00005938  00000+0  13083-2 0  9996
2 81838  67.7594 167.0648 0041123 329.9936  43.0835 14.57475351638868
UNKNOWN                 
1 81844U          26017.37527868  .00002915  00000+0  10324-2 0  9995
2 81844  82.9077 253.3242 0062955  43.3776 317.2342 14.33175657627995
UNKNOWN                 
1 81845U          26021.48634826  .00007109  00000+0  77650-3 0  9992
2 81845  97.6746 212.0706 0087489 173.4777 216.8762 14.85381644655425
UNKNOWN                 
1 81864U          26016.16998432  .00002078  00000+0  81233-3 0  9990
2 81864  65.6730 346.3915 0765717 358.2266   1.6083 13.32513215555427
